IRIDIUM 119             
1 42959U 17061E   24121.90537620  .00000333  00000+0  11171-3 0  9998
2 42959  86.3994 350.0858 0002321  81.9242 278.2217 14.34225426343409
IRIDIUM 107             
1 42960U 17061F   24121.92443054 -.00000144  00000+0 -58546-4 0  9999
2 42960  86.3989 350.0939 0002136  78.7662 281.3774 14.34216586343410
IRIDIUM 132             
1 42961U 17061G   24121.93076991  .00000258  00000+0  85175-4 0  9995
2 42961  86.3993 350.0766 0002075  78.6968 281.4460 14.34215345343419
IRIDIUM 136             
1 42962U 17061H   24121.68341308  .00000595  00000+0  20538-3 0  9990
2 42962  86.3992 350.1828 0002466  85.0782 275.0695 14.34216416343395
IRIDIUM 139             
1 42963U 17061J   24121.89905904  .00000351  00000+0  11837-3 0  9994
2 42963  86.3995 350.1423 0002092  77.8656 282.2774 14.34218159343433
IRIDIUM 125             
1 42964U 17061K   24121.88637589  .00000041  00000+0  74346-5 0  9997
2 42964  86.3997 350.1944 0002482  80.7615 279.3861 14.34216741343445
IRIDIUM 135             
1 43070U 17083A   24121.93025721  .00000201  00000+0  64767-4 0  9998
2 43070  86.3919 286.8346 0001863  99.5592 260.5814 14.34221722332749
IRIDIUM 138             
1 43071U 17083B   24121.88587008 -.00000146  00000+0 -59288-4 0  9996
2 43071  86.3904 286.5763 0002177  86.6868 273.4576 14.34217030332729
